[{"OBJECT_NAME":"STARLINK-34690","OBJECT_ID":"2025-152X","EPOCH":"2026-03-09T13:45:52.955712","MEAN_MOTION":15.0565091,"ECCENTRICITY":0.0002429,"INCLINATION":97.6023,"RA_OF_ASC_NODE":285.4597,"ARG_OF_PERICENTER":72.7737,"MEAN_ANOMALY":287.3755,"EPHEMERIS_TYPE":0,"CLASSIFICATION_TYPE":"U","NORAD_CAT_ID":64863,"ELEMENT_SET_NO":999,"REV_AT_EPOCH":3540,"BSTAR":0.00022893,"MEAN_MOTION_DOT":3.244e-5,"MEAN_MOTION_DDOT":0},{"OBJECT_NAME":"COSMOS 2251 DEB","OBJECT_ID":"1993-036SV","EPOCH":"2026-03-09T21:55:42.811680","MEAN_MOTION":15.15006345,"ECCENTRICITY":0.00579573,"INCLINATION":74.0283,"RA_OF_ASC_NODE":1.8812,"ARG_OF_PERICENTER":55.6817,"MEAN_ANOMALY":304.9843,"EPHEMERIS_TYPE":0,"CLASSIFICATION_TYPE":"U","NORAD_CAT_ID":34452,"ELEMENT_SET_NO":999,"REV_AT_EPOCH":91981,"BSTAR":0.0011020825,"MEAN_MOTION_DOT":0.00021495,"MEAN_MOTION_DDOT":0}]
